{
  "norad_id": 52602,
  "name": "STARLINK-4012",
  "history": [
    {
      "epoch": "2026-03-28T16:10:39.472608Z",
      "apogee_km": 540.6691011090397,
      "perigee_km": 538.8177379511653,
      "latitude_deg": 4.953405153652762e-05,
      "longitude_deg": 125.14204008466808,
      "height_km": 540.6136205260193,
      "semi_major_axis_km": 6917.880419530103,
      "eccentricity": 0.00013381,
      "inclination_deg": 53.2161,
      "raan_deg": 193.8976,
      "arg_perigee_deg": 88.4282,
      "mean_anomaly_deg": 271.6864,
      "mean_motion_rev_day": 15.0883999
    },
    {
      "epoch": "2026-03-29T00:07:34.919328Z",
      "apogee_km": 540.6743510744327,
      "perigee_km": 538.7857733664459,
      "latitude_deg": -3.700585609621279e-05,
      "longitude_deg": 4.097704658102085,
      "height_km": 540.5976093392347,
      "semi_major_axis_km": 6917.867062220439,
      "eccentricity": 0.0001365,
      "inclination_deg": 53.2162,
      "raan_deg": 192.4108,
      "arg_perigee_deg": 88.2988,
      "mean_anomaly_deg": 271.816,
      "mean_motion_rev_day": 15.0884436
    },
    {
      "epoch": "2026-03-29T23:58:22.272096Z",
      "apogee_km": 540.6932946036022,
      "perigee_km": 538.7702654401319,
      "latitude_deg": -3.106771809473539e-05,
      "longitude_deg": 0.9611659615467083,
      "height_km": 540.6358924632867,
      "semi_major_axis_km": 6917.868780021867,
      "eccentricity": 0.00013899,
      "inclination_deg": 53.2163,
      "raan_deg": 187.9509,
      "arg_perigee_deg": 90.51,
      "mean_anomaly_deg": 269.6051,
      "mean_motion_rev_day": 15.08843798
    },
    {
      "epoch": "2026-03-30T12:41:27.813696Z",
      "apogee_km": 540.7988791688513,
      "perigee_km": 538.7071859386087,
      "latitude_deg": 5.253002282419874e-05,
      "longitude_deg": 167.28582057335865,
      "height_km": 540.7617584110383,
      "semi_major_axis_km": 6917.89003255373,
      "eccentricity": 0.00015118,
      "inclination_deg": 53.2152,
      "raan_deg": 185.5709,
      "arg_perigee_deg": 96.2283,
      "mean_anomaly_deg": 263.8882,
      "mean_motion_rev_day": 15.08836845
    },
    {
      "epoch": "2026-03-31T12:32:14.453664Z",
      "apogee_km": 540.6435329123742,
      "perigee_km": 538.8538758806471,
      "latitude_deg": 5.174206913924782e-05,
      "longitude_deg": 164.15235577960797,
      "height_km": 540.7912448169943,
      "semi_major_axis_km": 6917.885704396511,
      "eccentricity": 0.00012935,
      "inclination_deg": 53.2156,
      "raan_deg": 181.1111,
      "arg_perigee_deg": 99.4501,
      "mean_anomaly_deg": 260.6638,
      "mean_motion_rev_day": 15.08838261
    },
    {
      "epoch": "2026-04-01T12:23:01.993056Z",
      "apogee_km": 540.6411947493089,
      "perigee_km": 538.8881984593881,
      "latitude_deg": -1.8589779433250812e-05,
      "longitude_deg": 161.01648144403453,
      "height_km": 540.6353276767586,
      "semi_major_axis_km": 6917.901696604348,
      "eccentricity": 0.0001267,
      "inclination_deg": 53.2159,
      "raan_deg": 176.6527,
      "arg_perigee_deg": 88.3626,
      "mean_anomaly_deg": 271.7511,
      "mean_motion_rev_day": 15.08833029
    },
    {
      "epoch": "2026-04-02T09:03:02.506176Z",
      "apogee_km": 540.7564251026752,
      "perigee_km": 538.7254744941729,
      "latitude_deg": 5.409061891756335e-05,
      "longitude_deg": -153.70065734915246,
      "height_km": 540.6427523685567,
      "semi_major_axis_km": 6917.877949798423,
      "eccentricity": 0.00014679,
      "inclination_deg": 53.2166,
      "raan_deg": 172.7864,
      "arg_perigee_deg": 90.3577,
      "mean_anomaly_deg": 269.7584,
      "mean_motion_rev_day": 15.08840798
    },
    {
      "epoch": "2026-04-02T21:46:07.723776Z",
      "apogee_km": 540.9413625199495,
      "perigee_km": 538.7031259860632,
      "latitude_deg": -2.9757475070833827e-05,
      "longitude_deg": 12.626526212834507,
      "height_km": 540.5958455776113,
      "semi_major_axis_km": 6917.959244253006,
      "eccentricity": 0.00016177,
      "inclination_deg": 53.218,
      "raan_deg": 170.4077,
      "arg_perigee_deg": 83.7509,
      "mean_anomaly_deg": 276.3667,
      "mean_motion_rev_day": 15.08814202
    },
    {
      "epoch": "2026-04-03T13:39:59.424192Z",
      "apogee_km": 540.7968409198911,
      "perigee_km": 538.7380725535668,
      "latitude_deg": 5.296847378984288e-05,
      "longitude_deg": 130.53417422629585,
      "height_km": 540.7261121303867,
      "semi_major_axis_km": 6917.904456736728,
      "eccentricity": 0.0001488,
      "inclination_deg": 53.2179,
      "raan_deg": 167.4336,
      "arg_perigee_deg": 93.5134,
      "mean_anomaly_deg": 266.6029,
      "mean_motion_rev_day": 15.08832126
    },
    {
      "epoch": "2026-04-04T05:33:50.767776Z",
      "apogee_km": 540.7441948977748,
      "perigee_km": 538.7786815935006,
      "latitude_deg": -6.046943788867773e-05,
      "longitude_deg": -111.5569330144474,
      "height_km": 540.7031622659815,
      "semi_major_axis_km": 6917.898438245637,
      "eccentricity": 0.00014206,
      "inclination_deg": 53.2174,
      "raan_deg": 164.4594,
      "arg_perigee_deg": 92.6883,
      "mean_anomaly_deg": 267.4271,
      "mean_motion_rev_day": 15.08834095
    },
    {
      "epoch": "2026-04-05T11:46:11.061120Z",
      "apogee_km": 540.7453042144252,
      "perigee_km": 538.8163120128111,
      "latitude_deg": 4.111584899472293e-06,
      "longitude_deg": 148.46785636056777,
      "height_km": 540.573701265582,
      "semi_major_axis_km": 6917.917808113618,
      "eccentricity": 0.00013942,
      "inclination_deg": 53.217,
      "raan_deg": 158.8092,
      "arg_perigee_deg": 83.8857,
      "mean_anomaly_deg": 276.2294,
      "mean_motion_rev_day": 15.08827758
    },
    {
      "epoch": "2026-04-07T13:03:07.552224Z",
      "apogee_km": 540.6261285117534,
      "perigee_km": 538.8565352344594,
      "latitude_deg": 6.94104980710855e-05,
      "longitude_deg": 117.98896577440739,
      "height_km": 540.5626468020484,
      "semi_major_axis_km": 6917.878331873106,
      "eccentricity": 0.0001279,
      "inclination_deg": 53.216,
      "raan_deg": 149.5896,
      "arg_perigee_deg": 85.1796,
      "mean_anomaly_deg": 274.9343,
      "mean_motion_rev_day": 15.08840673
    },
    {
      "epoch": "2026-04-08T06:32:22.058592Z",
      "apogee_km": 540.6494072306514,
      "perigee_km": 538.8271005312736,
      "latitude_deg": -3.861809757098071e-06,
      "longitude_deg": -148.31161456081404,
      "height_km": 540.6356414313392,
      "semi_major_axis_km": 6917.875253880962,
      "eccentricity": 0.00013171,
      "inclination_deg": 53.2164,
      "raan_deg": 146.3177,
      "arg_perigee_deg": 90.1086,
      "mean_anomaly_deg": 270.0057,
      "mean_motion_rev_day": 15.0884168
    },
    {
      "epoch": "2026-04-09T09:33:55.613376Z",
      "apogee_km": 540.6421768465898,
      "perigee_km": 538.8590221389431,
      "latitude_deg": -3.524991312648756e-05,
      "longitude_deg": 160.13362922915533,
      "height_km": 540.5856742146973,
      "semi_major_axis_km": 6917.887599492766,
      "eccentricity": 0.00012888,
      "inclination_deg": 53.2157,
      "raan_deg": 141.2627,
      "arg_perigee_deg": 86.1053,
      "mean_anomaly_deg": 274.0086,
      "mean_motion_rev_day": 15.08837641
    },
    {
      "epoch": "2026-04-10T09:24:42.832224Z",
      "apogee_km": 540.6071471604137,
      "perigee_km": 538.90811223936,
      "latitude_deg": 4.876195781077996e-05,
      "longitude_deg": 156.99800492331252,
      "height_km": 540.5880259315384,
      "semi_major_axis_km": 6917.8946296998865,
      "eccentricity": 0.0001228,
      "inclination_deg": 53.2159,
      "raan_deg": 136.8031,
      "arg_perigee_deg": 85.5895,
      "mean_anomaly_deg": 274.5238,
      "mean_motion_rev_day": 15.08835341
    },
    {
      "epoch": "2026-04-11T10:50:53.456640Z",
      "apogee_km": 540.6555933882164,
      "perigee_km": 538.8790755551245,
      "latitude_deg": 1.2549705256532627e-05,
      "longitude_deg": 129.65137635616398,
      "height_km": 540.5988275781027,
      "semi_major_axis_km": 6917.90433447167,
      "eccentricity": 0.0001284,
      "inclination_deg": 53.216,
      "raan_deg": 132.0454,
      "arg_perigee_deg": 85.8572,
      "mean_anomaly_deg": 274.2567,
      "mean_motion_rev_day": 15.08832166
    },
    {
      "epoch": "2026-04-13T05:46:18.189984Z",
      "apogee_km": 540.5818438800825,
      "perigee_km": 538.928329313544,
      "latitude_deg": 6.557136520913463e-05,
      "longitude_deg": -163.99424806747544,
      "height_km": 540.559011974537,
      "semi_major_axis_km": 6917.892086596813,
      "eccentricity": 0.00011951,
      "inclination_deg": 53.2158,
      "raan_deg": 124.0156,
      "arg_perigee_deg": 83.6223,
      "mean_anomaly_deg": 276.4906,
      "mean_motion_rev_day": 15.08836173
    },
    {
      "epoch": "2026-04-14T07:12:28.211328Z",
      "apogee_km": 540.5782872442287,
      "perigee_km": 538.9055441224173,
      "latitude_deg": -3.78332565775575e-05,
      "longitude_deg": 168.6611961375725,
      "height_km": 540.529912247191,
      "semi_major_axis_km": 6917.878915683323,
      "eccentricity": 0.0001209,
      "inclination_deg": 53.2158,
      "raan_deg": 119.2575,
      "arg_perigee_deg": 82.5967,
      "mean_anomaly_deg": 277.5162,
      "mean_motion_rev_day": 15.08840482
    },
    {
      "epoch": "2026-04-15T07:03:15.085440Z",
      "apogee_km": 540.5622690824539,
      "perigee_km": 538.9112493310813,
      "latitude_deg": 3.708530531022711e-05,
      "longitude_deg": 165.52680973144422,
      "height_km": 540.4824525057548,
      "semi_major_axis_km": 6917.873759206767,
      "eccentricity": 0.00011933,
      "inclination_deg": 53.2162,
      "raan_deg": 114.7977,
      "arg_perigee_deg": 79.521,
      "mean_anomaly_deg": 280.5917,
      "mean_motion_rev_day": 15.08842169
    }
  ]
}